[{"OBJECT_NAME":"HONGHU 2","OBJECT_ID":"2023-193C","EPOCH":"2026-03-09T23:21:07.139520","MEAN_MOTION":15.21543878,"ECCENTRICITY":0.00399876,"INCLINATION":97.2779,"RA_OF_ASC_NODE":62.3901,"ARG_OF_PERICENTER":264.1736,"MEAN_ANOMALY":95.4941,"EPHEMERIS_TYPE":0,"CLASSIFICATION_TYPE":"U","NORAD_CAT_ID":58555,"ELEMENT_SET_NO":999,"REV_AT_EPOCH":8691,"BSTAR":0.0061775359,"MEAN_MOTION_DOT":0.00144707,"MEAN_MOTION_DDOT":0},{"OBJECT_NAME":"STARLINK-34599","OBJECT_ID":"2025-157R","EPOCH":"2026-03-09T22:39:05.286816","MEAN_MOTION":15.30224076,"ECCENTRICITY":0.00011635,"INCLINATION":53.1605,"RA_OF_ASC_NODE":344.4133,"ARG_OF_PERICENTER":65.1303,"MEAN_ANOMALY":294.9818,"EPHEMERIS_TYPE":0,"CLASSIFICATION_TYPE":"U","NORAD_CAT_ID":64919,"ELEMENT_SET_NO":999,"REV_AT_EPOCH":3616,"BSTAR":0.0014769223,"MEAN_MOTION_DOT":0.00043673,"MEAN_MOTION_DDOT":0}]
